CIC_OEM_VERS = 2.0
CREATION_DATE = 2025-03-12T09:03:27.356982
ORIGINATOR = ISAE-SUPAERO


META_START
OBJECT_NAME = RED1
OBJECT_ID = RED1
CENTER_NAME = Earth
REF_FRAME = EME2000
TIME_SYSTEM = UTC
START_TIME = 2025-03-12T17:32:58.346
USEABLE_START_TIME = 2025-03-12T17:32:58.346
USEABLE_STOP_TIME = 2025-03-12T23:59:58.346
STOP_TIME = 2025-03-12T23:59:58.346
INTERPOLATION = lagrange
INTERPOLATION_DEGREE = 5
META_STOP


60746 63178.346 -35651.462 -3533.6789 -3533.6789 0.46190872000000005 -2.3301149999999997 -2.3301149999999997
60746 63268.346 -35608.659 -3743.2647 -3743.2647 0.48930640000000003 -2.3273171 -2.3273168
60746 63358.346 -35563.39 -3952.5913 -3952.5913 0.5166701 -2.3243583 -2.3243576
60746 63448.346 -35515.659 -4161.6444 -4161.6443 0.5439980600000001 -2.3212386 -2.3212376
60746 63538.346 -35465.471 -4370.4094000000005 -4370.4092 0.57128836 -2.3179582 -2.3179569
60746 63628.346 -35412.829 -4578.8721 -4578.871700000001 0.5985391200000001 -2.3145175 -2.3145158
60746 63718.346 -35357.735 -4787.0178 -4787.0172999999995 0.6257484600000001 -2.3109166 -2.3109145
60746 63808.346 -35300.195 -4994.832200000001 -4994.8315 0.65291447 -2.3071557 -2.3071533
60746 63898.346 -35240.212 -5202.301 -5202.3000999999995 0.6800353 -2.3032352 -2.3032323999999997
60746 63988.346 -35177.79 -5409.4098 -5409.4086 0.70710905 -2.2991553 -2.2991520000000003
60746 64078.346 -35112.934 -5616.144200000001 -5616.1427 0.73413386 -2.2949163 -2.2949126
60746 64168.346 -35045.648 -5822.49 -5822.4881 0.76110785 -2.2905185 -2.2905143
60746 64258.346 -34975.936 -6028.4328 -6028.4305 0.7880291600000001 -2.2859622 -2.2859575
60746 64348.346 -34903.804000000004 -6233.9584 -6233.9557 0.8148959200000001 -2.2812476999999998 -2.2812425
60746 64438.346 -34829.257 -6439.0526 -6439.049400000001 0.84170629 -2.2763753 -2.2763696
60746 64528.346 -34752.299 -6643.7012 -6643.697400000001 0.86845839 -2.2713453 -2.2713391
60746 64618.346 -34672.936 -6847.8901 -6847.885700000001 0.89515038 -2.2661582 -2.2661514
60746 64708.346 -34591.173 -7051.6050000000005 -7051.6 0.92178041 -2.2608143 -2.2608069
60746 64798.346 -34507.017 -7254.832 -7254.8263 0.94834664 -2.2553139 -2.255306
60746 64888.346 -34420.473 -7457.5568 -7457.5504 0.97484723 -2.2496574000000003 -2.2496489000000004
60746 64978.346 -34331.547 -7659.7656 -7659.758400000001 1.0012803000000001 -2.2438453 -2.2438362
60746 65068.346 -34240.245 -7861.4443 -7861.4362 1.0276442 -2.2378778 -2.2378681
60746 65158.346 -34146.573000000004 -8062.579 -8062.570000000001 1.0539368 -2.2317555000000002 -2.2317451999999998
60746 65248.346 -34050.538 -8263.155700000001 -8263.145700000001 1.0801566 -2.2254788 -2.2254678
60746 65338.346 -33952.147 -8463.1605 -8463.1496 1.1063016 -2.219048 -2.2190364
60746 65428.346 -33851.406 -8662.5797 -8662.5677 1.1323699999999999 -2.2124637 -2.2124514
60746 65518.346 -33748.323000000004 -8861.3994 -8861.386199999999 1.1583599999999998 -2.2057263 -2.2057132999999998
60746 65608.346 -33642.904 -9059.6059 -9059.5915 1.1842698 -2.1988362 -2.1988225000000003
60746 65698.346 -33535.157 -9257.1854 -9257.169699999999 1.2100977000000002 -2.191794 -2.1917795
60746 65788.346 -33425.089 -9454.1242 -9454.107199999999 1.2358418999999998 -2.1846001000000004 -2.1845849
60746 65878.346 -33312.708 -9650.4089 -9650.3905 1.2615005000000001 -2.177255 -2.1772391
60746 65968.346 -33198.021 -9846.025599999999 -9846.0058 1.2870717 -2.1697593000000004 -2.1697425
60746 66058.346 -33081.037000000004 -10040.961 -10040.94 1.3125539000000002 -2.1621133 -2.1620958999999997
60746 66148.346 -32961.764 -10235.202 -10235.179 1.3379453000000001 -2.1543178 -2.1542995
60746 66238.346 -32840.21 -10428.734 -10428.709 1.3632441 -2.1463732 -2.1463541
60746 66328.346 -32716.383 -10621.544 -10621.518 1.3884485 -2.1382801 -2.1382601
60746 66418.346 -32590.292 -10813.62 -10813.591 1.4135568 -2.1300389 -2.1300182
60746 66508.346 -32461.946 -11004.947 -11004.917 1.4385672 -2.1216504 -2.1216288
60746 66598.346 -32331.353 -11195.512 -11195.48 1.4634781000000001 -2.1131151 -2.1130926
60746 66688.346 -32198.523 -11385.303 -11385.269 1.4882877 -2.1044335000000003 -2.1044102
60746 66778.346 -32063.464 -11574.306 -11574.27 1.5129944000000002 -2.0956063 -2.0955821
60746 66868.346 -31926.187 -11762.508 -11762.469000000001 1.5375962 -2.0866341000000004 -2.086609
60746 66958.346 -31786.7 -11949.896 -11949.855 1.5620917 -2.0775175 -2.0774915000000003
60746 67048.346 -31645.014 -12136.457 -12136.414 1.5864791 -2.0682571 -2.0682301
60746 67138.346 -31501.137000000002 -12322.178 -12322.132 1.6107566 -2.0588536 -2.0588257
60746 67228.346 -31355.081000000002 -12507.046 -12506.998 1.6349227000000002 -2.0493076 -2.0492788
60746 67318.346 -31206.855 -12691.049 -12690.998 1.6589756 -2.0396198 -2.03959
60746 67408.346 -31056.469 -12874.174 -12874.12 1.6829138000000001 -2.0297909 -2.0297601
60746 67498.346 -30903.934 -13056.407000000001 -13056.351 1.7067354000000001 -2.0198215 -2.0197897
60746 67588.346 -30749.260000000002 -13237.737000000001 -13237.678 1.7304389000000002 -2.0097123 -2.0096795
60746 67678.346 -30592.458000000002 -13418.151 -13418.089 1.7540226 -1.9994641 -1.9994303
60746 67768.346 -30433.539 -13597.637 -13597.571 1.777485 -1.9890775 -1.9890426
60746 67858.346 -30272.515 -13776.181 -13776.112000000001 1.8008243 -1.9785532000000001 -1.9785174
60746 67948.346 -30109.395 -13953.772 -13953.7 1.824039 -1.9678920000000002 -1.9678551
60746 68038.346 -29944.191 -14130.397 -14130.322 1.8471275 -1.9570947 -1.9570567
60746 68128.346 -29776.916 -14306.045 -14305.966 1.8700881 -1.9461619000000001 -1.9461229000000002
60746 68218.346 -29607.579 -14480.703 -14480.62 1.8929193 -1.9350943999999999 -1.9350543
60746 68308.346 -29436.194 -14654.358 -14654.272 1.9156195 -1.9238931000000001 -1.9238518999999998
60746 68398.346 -29262.772 -14826.999 -14826.91 1.9381871000000002 -1.9125586 -1.9125163
60746 68488.346 -29087.325 -14998.615 -14998.521 1.9606206 -1.9010917 -1.9010483
60746 68578.346 -28909.864 -15169.192000000001 -15169.094000000001 1.9829184 -1.8894933 -1.8894488
60746 68668.346 -28730.403000000002 -15338.719000000001 -15338.618 2.0050789 -1.8777642 -1.8777185
60746 68758.346 -28548.954 -15507.186 -15507.08 2.0271007 -1.8659051 -1.8658583000000002
60746 68848.346 -28365.529000000002 -15674.578 -15674.468 2.0489821999999998 -1.8539169 -1.8538689
60746 68938.346 -28180.142 -15840.887 -15840.772 2.0707219 -1.8418004000000001 -1.8417512999999999
60746 69028.346 -27992.804 -16006.099 -16005.98 2.0923183 -1.8295564 -1.8295061000000001
60746 69118.346 -27803.529000000002 -16170.203 -16170.08 2.1137699 -1.8171859 -1.8171344
60746 69208.346 -27612.33 -16333.188 -16333.06 2.1350752 -1.8046896 -1.8046369
60746 69298.346 -27419.22 -16495.043 -16494.911 2.1562327 -1.7920684000000002 -1.7920145
60746 69388.346 -27224.212 -16655.757 -16655.619 2.177241 -1.7793232 -1.7792681000000001
60746 69478.346 -27027.321 -16815.318 -16815.175 2.1980986 -1.7664548 -1.7663986
60746 69568.346 -26828.559 -16973.715 -16973.567 2.2188041 -1.7534643 -1.7534068
60746 69658.346 -26627.941 -17130.938000000002 -17130.785 2.2393561 -1.7403524000000001 -1.7402936
60746 69748.346 -26425.48 -17286.975 -17286.816 2.2597530000000003 -1.72712 -1.7270600999999999
60746 69838.346 -26221.190000000002 -17441.816 -17441.652000000002 2.2799935999999996 -1.7137682 -1.713707
60746 69928.346 -26015.085 -17595.45 -17595.28 2.3000764 -1.7002978000000002 -1.7002353000000001
60746 70018.346 -25807.181 -17747.866 -17747.691 2.32 -1.6867097000000002 -1.6866459
60746 70108.346 -25597.49 -17899.054 -17898.873 2.3397631000000003 -1.6730049 -1.6729398000000002
60746 70198.346 -25386.028000000002 -18049.003 -18048.816 2.3593642 -1.6591843 -1.6591179999999999
60746 70288.346 -25172.81 -18197.704 -18197.511 2.3788020000000003 -1.6452489000000001 -1.6451813
60746 70378.346 -24957.849000000002 -18345.145 -18344.946 2.3980753 -1.6311996 -1.6311308
60746 70468.346 -24741.161 -18491.316 -18491.111 2.4171825 -1.6170375 -1.6169673
60746 70558.346 -24522.761000000002 -18636.208 -18635.996 2.4361225 -1.6027635 -1.602692
60746 70648.346 -24302.664 -18779.81 -18779.592 2.4548939 -1.5883786 -1.5883058
60746 70738.346 -24080.885000000002 -18922.113 -18921.888 2.4734954 -1.5738837 -1.5738096000000001
60746 70828.346 -23857.44 -19063.106 -19062.875 2.4919258 -1.55928 -1.5592045
60746 70918.346 -23632.344 -19202.78 -19202.542 2.5101836 -1.5445683 -1.5444916000000002
60746 71008.346 -23405.612 -19341.125 -19340.88 2.5282678 -1.5297498 -1.5296717000000002
60746 71098.346 -23177.261000000002 -19478.132 -19477.879 2.546177 -1.5148253999999999 -1.5147460000000001
60746 71188.346 -22947.306 -19613.791 -19613.531 2.56391 -1.4997962 -1.4997154000000001
60746 71278.346 -22715.762 -19748.092 -19747.825 2.5814654999999997 -1.4846632 -1.484581
60746 71368.346 -22482.647 -19881.027000000002 -19880.752 2.5988424 -1.4694274 -1.469344
60746 71458.346 -22247.976 -20012.586 -20012.304 2.6160395 -1.4540899999999999 -1.4540052
60746 71548.346 -22011.765 -20142.760000000002 -20142.47 2.6330554999999998 -1.438652 -1.4385658000000001
60746 71638.346 -21774.032 -20271.54 -20271.243000000002 2.6498893 -1.4231144 -1.4230268000000001
60746 71728.346 -21534.791 -20398.918 -20398.612 2.6665397 -1.4074783 -1.4073894
60746 71818.346 -21294.06 -20524.884000000002 -20524.57 2.6830056 -1.3917449 -1.3916545
60746 71908.346 -21051.855 -20649.429 -20649.107 2.6992858 -1.3759151 -1.3758234
60746 71998.346 -20808.194 -20772.545000000002 -20772.215 2.7153792 -1.3599901 -1.359897
60746 72088.346 -20563.093 -20894.224000000002 -20893.886000000002 2.7312847000000002 -1.343971 -1.3438766
60746 72178.346 -20316.569 -21014.457000000002 -21014.11 2.7470012 -1.327859 -1.3277630999999999
60746 72268.346 -20068.638 -21133.236 -21132.88 2.7625276 -1.311655 -1.3115577
60746 72358.346 -19819.319 -21250.553 -21250.188000000002 2.7778628 -1.2953602000000002 -1.2952616000000001
60746 72448.346 -19568.629 -21366.398 -21366.025 2.7930058 -1.2789758999999998 -1.2788758
